start=new Date('2023-04-04T00:00:00.000Z').valueOf();
sats=[{"APOAPSIS":"547.895","EPHEMERIS_TYPE":"0","MEAN_MOTION":"15.06390278","DECAY_DATE":null,"CLASSIFICATION_TYPE":"U","PERIOD":"95.593","MEAN_ANOMALY":"268.1889","LAUNCH_DATE":"2021-05-09","OBJECT_NAME":"STARLINK-2686","TLE_LINE1":"1 48464U 21040AN  23093.00104945  .00052302  00000-0  35051-2 0  9991","MEAN_ELEMENT_THEORY":"SGP4","OBJECT_ID":"2021-040AN","RA_OF_ASC_NODE":"322.6174","NORAD_CAT_ID":"48464","GP_ID":"229399350","ARG_OF_PERICENTER":"91.9208","FILE":"3879239","EPOCH":"2023-04-03T00:01:30.672480","MEAN_MOTION_DOT":"0.00052302","RCS_SIZE":"LARGE","TLE_LINE2":"2 48464  53.0551 322.6174 0000941  91.9208 268.1889 15.06390278106241","SEMIMAJOR_AXIS":"6925.378","OBJECT_TYPE":"PAYLOAD","CENTER_NAME":"EARTH","REF_FRAME":"TEME","SITE":"AFETR","MEAN_MOTION_DDOT":"0.0000000000000","PERIAPSIS":"546.592","ELEMENT_SET_NO":"999","BSTAR":"0.00350510000000","TIME_SYSTEM":"UTC","COUNTRY_CODE":"US","ECCENTRICITY":"0.00009410","REV_AT_EPOCH":"10624","INCLINATION":"53.0551"},{"RCS_SIZE":"LARGE","MEAN_MOTION_DOT":"0.00023847","EPOCH":"2023-04-03T20:59:26.383488","FILE":"3879321","ARG_OF_PERICENTER":"82.6303","GP_ID":"229423022","NORAD_CAT_ID":"48465","RA_OF_ASC_NODE":"318.6961","OBJECT_ID":"2021-040AP","MEAN_ELEMENT_THEORY":"SGP4","TLE_LINE1":"1 48465U 21040AP  23093.87461092  .00023847  00000-0  16119-2 0  9992","OBJECT_NAME":"STARLINK-2681","MEAN_ANOMALY":"277.4763","LAUNCH_DATE":"2021-05-09","CLASSIFICATION_TYPE":"U","PERIOD":"95.588","DECAY_DATE":null,"EPHEMERIS_TYPE":"0","MEAN_MOTION":"15.06457812","APOAPSIS":"547.504","INCLINATION":"53.0542","REV_AT_EPOCH":"10510","ECCENTRICITY":"0.00006750","COUNTRY_CODE":"US","TIME_SYSTEM":"UTC","BSTAR":"0.00161190000000","ELEMENT_SET_NO":"999","PERIAPSIS":"546.569","MEAN_MOTION_DDOT":"0.0000000000000","SITE":"AFETR","REF_FRAME":"TEME","CENTER_NAME":"EARTH","TLE_LINE2":"2 48465  53.0542 318.6961 0000675  82.6303 277.4763 15.06457812105104","SEMIMAJOR_AXIS":"6925.171","OBJECT_TYPE":"PAYLOAD"},{"CLASSIFICATION_TYPE":"U","PERIOD":"95.591","DECAY_DATE":null,"APOAPSIS":"547.551","MEAN_MOTION":"15.06421538","EPHEMERIS_TYPE":"0","OBJECT_ID":"2021-040AQ","RA_OF_ASC_NODE":"319.3585","MEAN_ELEMENT_THEORY":"SGP4","OBJECT_NAME":"STARLINK-2687","TLE_LINE1":"1 48466U 21040AQ  23093.72718197  .00025434  00000-0  17192-2 0  9994","MEAN_ANOMALY":"257.3625","LAUNCH_DATE":"2021-05-09","NORAD_CAT_ID":"48466","RCS_SIZE":"LARGE","EPOCH":"2023-04-03T17:27:08.522208","MEAN_MOTION_DOT":"0.00025434","GP_ID":"229423767","ARG_OF_PERICENTER":"102.7429","FILE":"3879321","CENTER_NAME":"EARTH","TLE_LINE2":"2 48466  53.0541 319.3585 0000582 102.7429 257.3625 15.06421538105081","SEMIMAJOR_AXIS":"6925.283","OBJECT_TYPE":"PAYLOAD","ELEMENT_SET_NO":"999","PERIAPSIS":"546.744","SITE":"AFETR","MEAN_MOTION_DDOT":"0.0000000000000","REF_FRAME":"TEME","COUNTRY_CODE":"US","TIME_SYSTEM":"UTC","BSTAR":"0.00171920000000","INCLINATION":"53.0541","REV_AT_EPOCH":"10508","ECCENTRICITY":"0.00005820"},{"TLE_LINE1":"1 48467U 21040AR  23093.88569999  .00026820  00000-0  18106-2 0  9992","OBJECT_NAME":"STARLINK-2659","MEAN_ANOMALY":"277.0859","LAUNCH_DATE":"2021-05-09","RA_OF_ASC_NODE":"318.6449","OBJECT_ID":"2021-040AR","MEAN_ELEMENT_THEORY":"SGP4","DECAY_DATE":null,"EPHEMERIS_TYPE":"0","MEAN_MOTION":"15.06441175","APOAPSIS":"547.873","CLASSIFICATION_TYPE":"U","PERIOD":"95.590","MEAN_MOTION_DOT":"0.00026820","EPOCH":"2023-04-03T21:15:24.479136","FILE":"3879321","ARG_OF_PERICENTER":"83.0260","GP_ID":"229422521","RCS_SIZE":"LARGE","NORAD_CAT_ID":"48467","MEAN_MOTION_DDOT":"0.0000000000000","SITE":"AFETR","REF_FRAME":"TEME","ELEMENT_SET_NO":"999","PERIAPSIS":"546.301","CENTER_NAME":"EARTH","TLE_LINE2":"2 48467  53.0539 318.6449 0001135  83.0260 277.0859 15.06441175105109","SEMIMAJOR_AXIS":"6925.222","OBJECT_TYPE":"PAYLOAD","ECCENTRICITY":"0.00011350","INCLINATION":"53.0539","REV_AT_EPOCH":"10510","TIME_SYSTEM":"UTC","BSTAR":"0.00181060000000","COUNTRY_CODE":"US"},{"NORAD_CAT_ID":"48468","MEAN_MOTION_DOT":"0.00016878","EPOCH":"2023-04-03T00:06:51.511968","ARG_OF_PERICENTER":"88.2319","FILE":"3879252","GP_ID":"229399356","RCS_SIZE":"LARGE","DECAY_DATE":null,"MEAN_MOTION":"15.06396044","EPHEMERIS_TYPE":"0","APOAPSIS":"547.893","CLASSIFICATION_TYPE":"U","PERIOD":"95.592","TLE_LINE1":"1 48468U 21040AS  23093.00476287  .00016878  00000-0  11494-2 0  9999","OBJECT_NAME":"STARLINK-2685","LAUNCH_DATE":"2021-05-09","MEAN_ANOMALY":"271.8780","RA_OF_ASC_NODE":"322.5982","OBJECT_ID":"2021-040AS","MEAN_ELEMENT_THEORY":"SGP4","TIME_SYSTEM":"UTC","BSTAR":"0.00114940000000","COUNTRY_CODE":"US","ECCENTRICITY":"0.00009630","INCLINATION":"53.0540","REV_AT_EPOCH":"10624","CENTER_NAME":"EARTH","OBJECT_TYPE":"PAYLOAD","TLE_LINE2":"2 48468  53.0540 322.5982 0000963  88.2319 271.8780 15.06396044106243","SEMIMAJOR_AXIS":"6925.361","MEAN_MOTION_DDOT":"0.0000000000000","SITE":"AFETR","REF_FRAME":"TEME","ELEMENT_SET_NO":"999","PERIAPSIS":"546.559"},{"SEMIMAJOR_AXIS":"6925.369","TLE_LINE2":"2 48469  53.0537 318.6628 0000881  89.8569 270.2520 15.06393308105105","OBJECT_TYPE":"PAYLOAD","CENTER_NAME":"EARTH","PERIAPSIS":"546.624","ELEMENT_SET_NO":"999","REF_FRAME":"TEME","MEAN_MOTION_DDOT":"0.0000000000000","SITE":"AFETR","COUNTRY_CODE":"US","BSTAR":"0.00169210000000","TIME_SYSTEM":"UTC","REV_AT_EPOCH":"10510","INCLINATION":"53.0537","ECCENTRICITY":"0.00008810","PERIOD":"95.593","CLASSIFICATION_TYPE":"U","MEAN_MOTION":"15.06393308","EPHEMERIS_TYPE":"0","APOAPSIS":"547.844","DECAY_DATE":null,"MEAN_ELEMENT_THEORY":"SGP4","RA_OF_ASC_NODE":"318.6628","OBJECT_ID":"2021-040AT","MEAN_ANOMALY":"270.2520","LAUNCH_DATE":"2021-05-09","TLE_LINE1":"1 48469U 21040AT  23093.88201265  .00025008  00000-0  16921-2 0  9993","OBJECT_NAME":"STARLINK-2661","NORAD_CAT_ID":"48469","RCS_SIZE":"LARGE","ARG_OF_PERICENTER":"89.8569","FILE":"3879321","GP_ID":"229423523","MEAN_MOTION_DOT":"0.00025008","EPOCH":"2023-04-03T21:10:05.892960"},{"LAUNCH_DATE":"2021-05-09","MEAN_ANOMALY":"291.5543","TLE_LINE1":"1 48470U 21040AU  23093.87736696  .00026563  00000-0  17941-2 0  9995","OBJECT_NAME":"STARLINK-2675","MEAN_ELEMENT_THEORY":"SGP4","RA_OF_ASC_NODE":"318.6721","OBJECT_ID":"2021-040AU","MEAN_MOTION":"15.06428689","EPHEMERIS_TYPE":"0","APOAPSIS":"547.694","DECAY_DATE":null,"CLASSIFICATION_TYPE":"U","PERIOD":"95.590","ARG_OF_PERICENTER":"68.5533","FILE":"3879321","GP_ID":"229423267","MEAN_MOTION_DOT":"0.00026563","EPOCH":"2023-04-03T21:03:24.505344","RCS_SIZE":"LARGE","NORAD_CAT_ID":"48470","REF_FRAME":"TEME","MEAN_MOTION_DDOT":"0.0000000000000","SITE":"AFETR","PERIAPSIS":"546.557","ELEMENT_SET_NO":"999","TLE_LINE2":"2 48470  53.0540 318.6721 0000821  68.5533 291.5543 15.06428689105094","SEMIMAJOR_AXIS":"6925.261","OBJECT_TYPE":"PAYLOAD","CENTER_NAME":"EARTH","ECCENTRICITY":"0.00008210","REV_AT_EPOCH":"10509","INCLINATION":"53.0540","BSTAR":"0.00179410000000","TIME_SYSTEM":"UTC","COUNTRY_CODE":"US"},{"CLASSIFICATION_TYPE":"U","PERIOD":"95.590","DECAY_DATE":null,"MEAN_MOTION":"15.06440438","EPHEMERIS_TYPE":"0","APOAPSIS":"547.714","RA_OF_ASC_NODE":"318.7132","OBJECT_ID":"2021-040AV","MEAN_ELEMENT_THEORY":"SGP4","TLE_LINE1":"1 48471U 21040AV  23093.87094280  .00023032  00000-0  15584-2 0  9991","OBJECT_NAME":"STARLINK-2684","LAUNCH_DATE":"2021-05-09","MEAN_ANOMALY":"240.2267","NORAD_CAT_ID":"48471","RCS_SIZE":"LARGE","MEAN_MOTION_DOT":"0.00023032","EPOCH":"2023-04-03T20:54:09.457920","ARG_OF_PERICENTER":"119.8811","FILE":"3879321","GP_ID":"229422021","CENTER_NAME":"EARTH","SEMIMAJOR_AXIS":"6925.225","TLE_LINE2":"2 48471  53.0538 318.7132 0000901 119.8811 240.2267 15.06440438105097","OBJECT_TYPE":"PAYLOAD","ELEMENT_SET_NO":"999","PERIAPSIS":"546.466","MEAN_MOTION_DDOT":"0.0000000000000","SITE":"AFETR","REF_FRAME":"TEME","COUNTRY_CODE":"US","TIME_SYSTEM":"UTC","BSTAR":"0.00155840000000","INCLINATION":"53.0538","REV_AT_EPOCH":"10509","ECCENTRICITY":"0.00009010"},{"REV_AT_EPOCH":"10509","INCLINATION":"53.0540","ECCENTRICITY":"0.00008340","COUNTRY_CODE":"US","BSTAR":"0.00155460000000","TIME_SYSTEM":"UTC","PERIAPSIS":"546.507","ELEMENT_SET_NO":"999","REF_FRAME":"TEME","MEAN_MOTION_DDOT":"0.0000000000000","SITE":"AFETR","SEMIMAJOR_AXIS":"6925.219","TLE_LINE2":"2 48472  53.0540 318.4944 0000834  81.3096 278.7988 15.06442139105098","OBJECT_TYPE":"PAYLOAD","CENTER_NAME":"EARTH","RCS_SIZE":"LARGE","ARG_OF_PERICENTER":"81.3096","FILE":"3879321","GP_ID":"229422772","MEAN_MOTION_DOT":"0.00022976","EPOCH":"2023-04-03T22:03:09.528192","NORAD_CAT_ID":"48472","MEAN_ELEMENT_THEORY":"SGP4","RA_OF_ASC_NODE":"318.4944","OBJECT_ID":"2021-040AW","MEAN_ANOMALY":"278.7988","LAUNCH_DATE":"2021-05-09","TLE_LINE1":"1 48472U 21040AW  23093.91886028  .00022976  00000-0  15546-2 0  9990","OBJECT_NAME":"STARLINK-2722","CLASSIFICATION_TYPE":"U","PERIOD":"95.589","MEAN_MOTION":"15.06442139","EPHEMERIS_TYPE":"0","APOAPSIS":"547.662","DECAY_DATE":null},{"NORAD_CAT_ID":"48473","GP_ID":"229423023","ARG_OF_PERICENTER":"85.5318","FILE":"3879321","EPOCH":"2023-04-03T21:20:39.913440","MEAN_MOTION_DOT":"0.00024198","RCS_SIZE":"LARGE","APOAPSIS":"547.770","MEAN_MOTION":"15.06473433","EPHEMERIS_TYPE":"0","DECAY_DATE":null,"PERIOD":"95.587","CLASSIFICATION_TYPE":"U","MEAN_ANOMALY":"274.5800","LAUNCH_DATE":"2021-05-09","OBJECT_NAME":"STARLINK-2658","TLE_LINE1":"1 48473U 21040AX  23093.88935085  .00024198  00000-0  16346-2 0  9992","MEAN_ELEMENT_THEORY":"SGP4","OBJECT_ID":"2021-040AX","RA_OF_ASC_NODE":"318.6317","BSTAR":"0.00163460000000","TIME_SYSTEM":"UTC","COUNTRY_CODE":"US","ECCENTRICITY":"0.00011290","REV_AT_EPOCH":"10509","INCLINATION":"53.0535","TLE_LINE2":"2 48473  53.0535 318.6317 0001129  85.5318 274.5800 15.06473433105098","SEMIMAJOR_AXIS":"6925.124","OBJECT_TYPE":"PAYLOAD","CENTER_NAME":"EARTH","REF_FRAME":"TEME","SITE":"AFETR","MEAN_MOTION_DDOT":"0.0000000000000","PERIAPSIS":"546.207","ELEMENT_SET_NO":"999"}];
